{"type": "FeatureCollection", "features": [ {"type": "Feature", "properties": {"norad_id": 34909, "name": "COSMOS 2251 DEB", "group": "cosmos-2251-debris", "lat": 73.98884325346896, "lon": 177.6104108871331, "alt_km": 667.7121860862408, "timestamp": "2025-12-08T10:52:03.343826+00:00", "meta": {"OBJECT_NAME": "COSMOS 2251 DEB", "OBJECT_ID": "1993-036ADE", "EPOCH": "2025-12-07T13:19:50.168064", "MEAN_MOTION": 14.77761323, "ECCENTRICITY": 0.00848918, "INCLINATION": 74.0148, "RA_OF_ASC_NODE": 86.763, "ARG_OF_PERICENTER": 223.7192, "MEAN_ANOMALY": 135.724, "EPHEMERIS_TYPE": 0, "CLASSIFICATION_TYPE": "U", "NORAD_CAT_ID": 34909, "ELEMENT_SET_NO": 999, "REV_AT_EPOCH": 66775, "BSTAR": 0.0010824796, "MEAN_MOTION_DOT": 8.222e-05, "MEAN_MOTION_DDOT": 0}, "tle": {"line1": "1 34909U 93036ADE 25341.55544176  .00008222  00000+0  10825-2 0  9999", "line2": "2 34909  74.0148  86.7630 0084891 223.7192 135.7240 14.77761323667751"}}, "geometry": {"type": "Point", "coordinates": [177.6104108871331, 73.98884325346896]}}, {"type": "Feature", "properties": {"norad_id": 34910, "name": "COSMOS 2251 DEB", "group": "cosmos-2251-debris", "lat": 46.46733169077887, "lon": 125.91809603567528, "alt_km": 1464.1710532769248, "timestamp": "2025-12-08T10:52:03.343836+00:00", "meta": {"OBJECT_NAME": "COSMOS 2251 DEB", "OBJECT_ID": "1993-036ADF", "EPOCH": "2025-12-04T03:27:09.174816", "MEAN_MOTION": 13.3765034, "ECCENTRICITY": 0.04679235, "INCLINATION": 73.8763, "RA_OF_ASC_NODE": 114.9889, "ARG_OF_PERICENTER": 235.2756, "MEAN_ANOMALY": 311.3517, "EPHEMERIS_TYPE": 0, "CLASSIFICATION_TYPE": "U", "NORAD_CAT_ID": 34910, "ELEMENT_SET_NO": 999, "REV_AT_EPOCH": 81409, "BSTAR": 0.0018660381, "MEAN_MOTION_DOT": 1.821e-05, "MEAN_MOTION_DDOT": 0}, "tle": {"line1": "1 34910U 93036ADF 25338.14385619  .00001821  00000+0  18660-2 0  9990", "line2": "2 34910  73.8763 114.9889 0467923 235.2756 311.3517 13.37650340814099"}}, "geometry": {"type": "Point", "coordinates": [125.91809603567528, 46.46733169077887]}}, {"type": "Feature", "properties": {"norad_id": 34911, "name": "COSMOS 2251 DEB", "group": "cosmos-2251-debris", "lat": 62.60638155929622, "lon": 39.395512258352916, "alt_km": 691.4570927078184, "timestamp": "2025-12-08T10:52:03.343846+00:00", "meta": {"OBJECT_NAME": "COSMOS 2251 DEB", "OBJECT_ID": "1993-036ADG", "EPOCH": "2025-12-07T19:48:50.174208", "MEAN_MOTION": 14.59359409, "ECCENTRICITY": 0.00833686, "INCLINATION": 74.0411, "RA_OF_ASC_NODE": 254.1089, "ARG_OF_PERICENTER": 20.7952, "MEAN_ANOMALY": 36.814, "EPHEMERIS_TYPE": 0, "CLASSIFICATION_TYPE": "U", "NORAD_CAT_ID": 34911, "ELEMENT_SET_NO": 999, "REV_AT_EPOCH": 88515, "BSTAR": 0.0003184734, "MEAN_MOTION_DOT": 1.55e-05, "MEAN_MOTION_DDOT": 0}, "tle": {"line1": "1 34911U 93036ADG 25341.82558072  .00001550  00000+0  31847-3 0  9997", "line2": "2 34911  74.0411 254.1089 0083368  20.7952  36.8140 14.59359409885157"}}, "geometry": {"type": "Point", "coordinates": [39.395512258352916, 62.60638155929622]}}, {"type": "Feature", "properties": {"norad_id": 34913, "name": "COSMOS 2251 DEB", "group": "cosmos-2251-debris", "lat": 41.75327386599033, "lon": 95.54206741206653, "alt_km": 773.604478178785, "timestamp": "2025-12-08T10:52:03.343856+00:00", "meta": {"OBJECT_NAME": "COSMOS 2251 DEB", "OBJECT_ID": "1993-036ADJ", "EPOCH": "2025-12-07T14:57:32.821920", "MEAN_MOTION": 14.34634947, "ECCENTRICITY": 0.00201639, "INCLINATION": 74.028, "RA_OF_ASC_NODE": 291.8739, "ARG_OF_PERICENTER": 43.4635, "MEAN_ANOMALY": 129.8939, "EPHEMERIS_TYPE": 0, "CLASSIFICATION_TYPE": "U", "NORAD_CAT_ID": 34913, "ELEMENT_SET_NO": 999, "REV_AT_EPOCH": 65114, "BSTAR": 0.00010029245, "MEAN_MOTION_DOT": 2.58e-06, "MEAN_MOTION_DDOT": 0}, "tle": {"line1": "1 34913U 93036ADJ 25341.62329655  .00000258  00000+0  10029-3 0  9993", "line2": "2 34913  74.0280 291.8739 0020163  43.4635 129.8939 14.34634947651142"}}, "geometry": {"type": "Point", "coordinates": [95.54206741206653, 41.75327386599033]}}, {"type": "Feature", "properties": {"norad_id": 34918, "name": "COSMOS 2251 DEB", "group": "cosmos-2251-debris", "lat": -50.019290772989564, "lon": 161.7255078629649, "alt_km": 683.0553759371851, "timestamp": "2025-12-08T10:52:03.343866+00:00", "meta": {"OBJECT_NAME": "COSMOS 2251 DEB", "OBJECT_ID": "1993-036ADP", "EPOCH": "2025-12-02T07:49:20.078112", "MEAN_MOTION": 14.60858458, "ECCENTRICITY": 0.0034182, "INCLINATION": 74.0712, "RA_OF_ASC_NODE": 333.4916, "ARG_OF_PERICENTER": 302.4495, "MEAN_ANOMALY": 120.4085, "EPHEMERIS_TYPE": 0, "CLASSIFICATION_TYPE": "U", "NORAD_CAT_ID": 34918, "ELEMENT_SET_NO": 999, "REV_AT_EPOCH": 65184, "BSTAR": 0.0024749, "MEAN_MOTION_DOT": 0.00012194, "MEAN_MOTION_DDOT": 0}, "tle": {"line1": "1 34918U 93036ADP 25336.32592683  .00012194  00000+0  24749-2 0  9997", "line2": "2 34918  74.0712 333.4916 0034182 302.4495 120.4085 14.60858458651845"}}, "geometry": {"type": "Point", "coordinates": [161.7255078629649, -50.019290772989564]}}, {"type": "Feature", "properties": {"norad_id": 34924, "name": "COSMOS 2251 DEB", "group": "cosmos-2251-debris", "lat": -62.98014256716385, "lon": -48.23789091574308, "alt_km": 683.2735692015303, "timestamp": "2025-12-08T10:52:03.343876+00:00", "meta": {"OBJECT_NAME": "COSMOS 2251 DEB", "OBJECT_ID": "1993-036ADV", "EPOCH": "2025-12-07T17:51:59.025024", "MEAN_MOTION": 14.5995474, "ECCENTRICITY": 0.00548404, "INCLINATION": 74.0409, "RA_OF_ASC_NODE": 98.9779, "ARG_OF_PERICENTER": 184.8528, "MEAN_ANOMALY": 300.8119, "EPHEMERIS_TYPE": 0, "CLASSIFICATION_TYPE": "U", "NORAD_CAT_ID": 34924, "ELEMENT_SET_NO": 999, "REV_AT_EPOCH": 87650, "BSTAR": 0.0019218661, "MEAN_MOTION_DOT": 9.392e-05, "MEAN_MOTION_DDOT": 0}, "tle": {"line1": "1 34924U 93036ADV 25341.74443316  .00009392  00000+0  19219-2 0  9996", "line2": "2 34924  74.0409  98.9779 0054840 184.8528 300.8119 14.59954740876500"}}, "geometry": {"type": "Point", "coordinates": [-48.23789091574308, -62.98014256716385]}}, {"type": "Feature", "properties": {"norad_id": 34944, "name": "COSMOS 2251 DEB", "group": "cosmos-2251-debris", "lat": -22.511623738089572, "lon": -127.17065117240617, "alt_km": 905.367919850637, "timestamp": "2025-12-08T10:52:03.343887+00:00", "meta": {"OBJECT_NAME": "COSMOS 2251 DEB", "OBJECT_ID": "1993-036ADX", "EPOCH": "2025-12-07T09:30:46.029312", "MEAN_MOTION": 14.14167925, "ECCENTRICITY": 0.02195348, "INCLINATION": 73.7495, "RA_OF_ASC_NODE": 241.6775, "ARG_OF_PERICENTER": 90.2413, "MEAN_ANOMALY": 272.3884, "EPHEMERIS_TYPE": 0, "CLASSIFICATION_TYPE": "U", "NORAD_CAT_ID": 34944, "ELEMENT_SET_NO": 999, "REV_AT_EPOCH": 64007, "BSTAR": 0.00099492053, "MEAN_MOTION_DOT": 2.364e-05, "MEAN_MOTION_DDOT": 0}, "tle": {"line1": "1 34944U 93036ADX 25341.39636608  .00002364  00000+0  99492-3 0  9991", "line2": "2 34944  73.7495 241.6775 0219534  90.2413 272.3884 14.14167925640077"}}, "geometry": {"type": "Point", "coordinates": [-127.17065117240617, -22.511623738089572]}}, {"type": "Feature", "properties": {"norad_id": 34946, "name": "COSMOS 2251 DEB", "group": "cosmos-2251-debris", "lat": 57.03126377533947, "lon": 16.539513641046774, "alt_km": 668.0065987124972, "timestamp": "2025-12-08T10:52:03.343897+00:00", "meta": {"OBJECT_NAME": "COSMOS 2251 DEB", "OBJECT_ID": "1993-036ADZ", "EPOCH": "2025-12-07T18:10:01.731072", "MEAN_MOTION": 14.61957351, "ECCENTRICITY": 0.00488268, "INCLINATION": 74.0232, "RA_OF_ASC_NODE": 351.66, "ARG_OF_PERICENTER": 130.4415, "MEAN_ANOMALY": 230.1026, "EPHEMERIS_TYPE": 0, "CLASSIFICATION_TYPE": "U", "NORAD_CAT_ID": 34946, "ELEMENT_SET_NO": 999, "REV_AT_EPOCH": 88136, "BSTAR": 0.00093618069, "MEAN_MOTION_DOT": 4.743e-05, "MEAN_MOTION_DDOT": 0}, "tle": {"line1": "1 34946U 93036ADZ 25341.75696448  .00004743  00000+0  93618-3 0  9998", "line2": "2 34946  74.0232 351.6600 0048826 130.4415 230.1026 14.61957351881365"}}, "geometry": {"type": "Point", "coordinates": [16.539513641046774, 57.03126377533947]}}, {"type": "Feature", "properties": {"norad_id": 34949, "name": "COSMOS 2251 DEB", "group": "cosmos-2251-debris", "lat": 44.184535881097084, "lon": -78.14196423008477, "alt_km": 681.003136712704, "timestamp": "2025-12-08T10:52:03.343908+00:00", "meta": {"OBJECT_NAME": "COSMOS 2251 DEB", "OBJECT_ID": "1993-036AEC", "EPOCH": "2025-12-07T03:18:23.961312", "MEAN_MOTION": 14.73936848, "ECCENTRICITY": 0.00804436, "INCLINATION": 74.018, "RA_OF_ASC_NODE": 120.5995, "ARG_OF_PERICENTER": 267.0595, "MEAN_ANOMALY": 92.137, "EPHEMERIS_TYPE": 0, "CLASSIFICATION_TYPE": "U", "NORAD_CAT_ID": 34949, "ELEMENT_SET_NO": 999, "REV_AT_EPOCH": 88279, "BSTAR": 0.00083987468, "MEAN_MOTION_DOT": 5.775e-05, "MEAN_MOTION_DDOT": 0}, "tle": {"line1": "1 34949U 93036AEC 25341.13777733  .00005775  00000+0  83987-3 0  9994", "line2": "2 34949  74.0180 120.5995 0080443 267.0595  92.1370 14.73936848882794"}}, "geometry": {"type": "Point", "coordinates": [-78.14196423008477, 44.184535881097084]}}, {"type": "Feature", "properties": {"norad_id": 34953, "name": "COSMOS 2251 DEB", "group": "cosmos-2251-debris", "lat": -7.343820882290267, "lon": -142.13373673463187, "alt_km": 705.9658471949888, "timestamp": "2025-12-08T10:52:03.343919+00:00", "meta": {"OBJECT_NAME": "COSMOS 2251 DEB", "OBJECT_ID": "1993-036AEG", "EPOCH": "2025-12-07T21:44:28.481280", "MEAN_MOTION": 14.68892681, "ECCENTRICITY": 0.00577897, "INCLINATION": 74.0931, "RA_OF_ASC_NODE": 36.8144, "ARG_OF_PERICENTER": 30.2874, "MEAN_ANOMALY": 146.0062, "EPHEMERIS_TYPE": 0, "CLASSIFICATION_TYPE": "U", "NORAD_CAT_ID": 34953, "ELEMENT_SET_NO": 999, "REV_AT_EPOCH": 88057, "BSTAR": 0.0010643197, "MEAN_MOTION_DOT": 6.359e-05, "MEAN_MOTION_DDOT": 0}, "tle": {"line1": "1 34953U 93036AEG 25341.90588520  .00006359  00000+0  10643-2 0  9995", "line2": "2 34953  74.0931  36.8144 0057789  30.2874 146.0062 14.68892681880576"}}, "geometry": {"type": "Point", "coordinates": [-142.13373673463187, -7.343820882290267]}}]}